[{"OBJECT_NAME":"STARLINK-32389","OBJECT_ID":"2024-184T","EPOCH":"2026-03-09T03:31:42.783744","MEAN_MOTION":15.30190121,"ECCENTRICITY":9.544e-5,"INCLINATION":53.1625,"RA_OF_ASC_NODE":16.4831,"ARG_OF_PERICENTER":87.2231,"MEAN_ANOMALY":272.8879,"EPHEMERIS_TYPE":0,"CLASSIFICATION_TYPE":"U","NORAD_CAT_ID":61549,"ELEMENT_SET_NO":999,"REV_AT_EPOCH":7842,"BSTAR":-9.07574e-6,"MEAN_MOTION_DOT":-6.28e-6,"MEAN_MOTION_DDOT":0},{"OBJECT_NAME":"OBJECT H","OBJECT_ID":"2025-055H","EPOCH":"2026-03-09T23:29:50.051328","MEAN_MOTION":15.30330066,"ECCENTRICITY":0.00075967,"INCLINATION":97.636,"RA_OF_ASC_NODE":211.9572,"ARG_OF_PERICENTER":140.4354,"MEAN_ANOMALY":219.7441,"EPHEMERIS_TYPE":0,"CLASSIFICATION_TYPE":"U","NORAD_CAT_ID":63298,"ELEMENT_SET_NO":999,"REV_AT_EPOCH":5423,"BSTAR":0.0015582864,"MEAN_MOTION_DOT":0.00045901,"MEAN_MOTION_DDOT":0}]
